LUCH-5A                 
1 37951U 11074B   26116.57777743 -.00000055  00000+0  00000+0 0  9990
2 37951   8.6258  74.5510 0002734 304.1973 210.7539  1.00272889 52530
NIGCOMSAT 1R            
1 38014U 11077A   26116.50247322  .00000132  00000+0  00000+0 0  9997
2 38014   0.0393 105.4296 0002461 239.2916  93.1808  1.00274644 52436
WGS F4 (USA 233)        
1 38070U 12003A   26116.36896593 -.00000227  00000+0  00000+0 0  9999
2 38070   0.0163 220.7183 0000354  93.8264 121.0532  1.00270891 43624
SES-4                   
1 38087U 12007A   26116.34703917 -.00000181  00000+0  00000+0 0  9995
2 38087   0.0165  34.4486 0002605  21.3155 261.5349  1.00271443 51704
BEIDOU-2 G5             
1 38091U 12008A   26116.50567990  .00000047  00000+0  00000+0 0  9998
2 38091   3.4471  69.9871 0012301 265.8643 119.4374  1.00272955 51852
INTELSAT 22 (IS-22)     
1 38098U 12011A   26116.50827991 -.00000070  00000+0  00000+0 0  9996
2 38098   0.0207 110.0840 0001760 289.9729  69.5323  1.00270661  6673
COSMOS 2479             
1 38101U 12012A   26116.49978654  .00000138  00000+0  00000+0 0  9997
2 38101   8.7340  56.8553 0005857 247.1481 119.6614  1.00362915 51574
SL-12 R/B(2)            
1 38104U 12012D   26116.47614149  .00000119  00000+0  00000+0 0  9993
2 38104   8.7227  57.0621 0012660 302.3103 231.9139  1.00346947 51549
APSTAR-7                
1 38107U 12013A   26116.50914657 -.00000114  00000+0  00000+0 0  9994
2 38107   0.0413  62.5297 0002957 349.1124  62.6544  1.00271298 51291
YAHSAT 1B               
1 38245U 12016A   26116.50342654  .00000114  00000+0  00000+0 0  9991
2 38245   0.0857  86.2656 0002867 308.6573  48.4183  1.00270155 45088
AEHF-2 (USA 235)        
1 38254U 12019A   26116.24558549 -.00000144  00000+0  00000+0 0  9991
2 38254   6.5315  57.8605 0002344 320.1923 268.0902  1.00273459  6462
JCSAT-13                
1 38331U 12023A   26116.41780597 -.00000368  00000+0  00000+0 0  9999
2 38331   0.0403  78.1768 0002318 327.5682  83.0907  1.00273776 51029
VINASAT-2               
1 38332U 12023B   26116.44881847  .00000000  00000+0  00000+0 0  9995
2 38332   0.0121  59.3645 0002789 354.3339  94.1786  1.00268420 46146
NIMIQ 6                 
1 38342U 12026A   26116.47595309 -.00000186  00000+0  00000+0 0  9993
2 38342   0.0637  76.5286 0002537 313.3800 264.8106  1.00271851 49899
ZHONGXING-2A            
1 38352U 12028A   26114.81761340 -.00000305  00000+0  00000+0 0  9995
2 38352   1.3174  84.5163 0001525  20.4336 140.4515  1.00268081 50761
INTELSAT 19 (IS-19)     
1 38356U 12030A   26116.50044985 -.00000069  00000+0  00000+0 0  9996
2 38356   0.0434  69.0686 0002945 323.0946 168.4987  1.00268338 49939
ECHOSTAR 17             
1 38551U 12035A   26116.47283308  .00000000  00000+0  00000+0 0  9992
2 38551   0.0152 227.0410 0002054 176.3761 234.1777  1.00268050 50547
