[{"OBJECT_NAME":"LUCH-5A","OBJECT_ID":"2011-074B","EPOCH":"2026-04-26T13:51:59.969952","MEAN_MOTION":1.00272889,"ECCENTRICITY":0.0002734,"INCLINATION":8.6258,"RA_OF_ASC_NODE":74.551,"ARG_OF_PERICENTER":304.1973,"MEAN_ANOMALY":210.7539,"EPHEMERIS_TYPE":0,"CLASSIFICATION_TYPE":"U","NORAD_CAT_ID":37951,"ELEMENT_SET_NO":999,"REV_AT_EPOCH":5253,"BSTAR":0,"MEAN_MOTION_DOT":-5.5e-7,"MEAN_MOTION_DDOT":0},{"OBJECT_NAME":"NIGCOMSAT 1R","OBJECT_ID":"2011-077A","EPOCH":"2026-04-26T12:03:33.686208","MEAN_MOTION":1.00274644,"ECCENTRICITY":0.0002461,"INCLINATION":0.0393,"RA_OF_ASC_NODE":105.4296,"ARG_OF_PERICENTER":239.2916,"MEAN_ANOMALY":93.1808,"EPHEMERIS_TYPE":0,"CLASSIFICATION_TYPE":"U","NORAD_CAT_ID":38014,"ELEMENT_SET_NO":999,"REV_AT_EPOCH":5243,"BSTAR":0,"MEAN_MOTION_DOT":1.32e-6,"MEAN_MOTION_DDOT":0},{"OBJECT_NAME":"WGS F4 (USA 233)","OBJECT_ID":"2012-003A","EPOCH":"2026-04-26T08:51:18.656352","MEAN_MOTION":1.00270891,"ECCENTRICITY":3.54e-5,"INCLINATION":0.0163,"RA_OF_ASC_NODE":220.7183,"ARG_OF_PERICENTER":93.8264,"MEAN_ANOMALY":121.0532,"EPHEMERIS_TYPE":0,"CLASSIFICATION_TYPE":"U","NORAD_CAT_ID":38070,"ELEMENT_SET_NO":999,"REV_AT_EPOCH":4362,"BSTAR":0,"MEAN_MOTION_DOT":-2.27e-6,"MEAN_MOTION_DDOT":0},{"OBJECT_NAME":"SES-4","OBJECT_ID":"2012-007A","EPOCH":"2026-04-26T08:19:44.184288","MEAN_MOTION":1.00271443,"ECCENTRICITY":0.0002605,"INCLINATION":0.0165,"RA_OF_ASC_NODE":34.4486,"ARG_OF_PERICENTER":21.3155,"MEAN_ANOMALY":261.5349,"EPHEMERIS_TYPE":0,"CLASSIFICATION_TYPE":"U","NORAD_CAT_ID":38087,"ELEMENT_SET_NO":999,"REV_AT_EPOCH":5170,"BSTAR":0,"MEAN_MOTION_DOT":-1.81e-6,"MEAN_MOTION_DDOT":0},{"OBJECT_NAME":"BEIDOU-2 G5","OBJECT_ID":"2012-008A","EPOCH":"2026-04-26T12:08:10.743360","MEAN_MOTION":1.00272955,"ECCENTRICITY":0.0012301,"INCLINATION":3.4471,"RA_OF_ASC_NODE":69.9871,"ARG_OF_PERICENTER":265.8643,"MEAN_ANOMALY":119.4374,"EPHEMERIS_TYPE":0,"CLASSIFICATION_TYPE":"U","NORAD_CAT_ID":38091,"ELEMENT_SET_NO":999,"REV_AT_EPOCH":5185,"BSTAR":0,"MEAN_MOTION_DOT":4.7e-7,"MEAN_MOTION_DDOT":0},{"OBJECT_NAME":"INTELSAT 22 (IS-22)","OBJECT_ID":"2012-011A","EPOCH":"2026-04-26T12:11:55.384224","MEAN_MOTION":1.00270661,"ECCENTRICITY":0.000176,"INCLINATION":0.0207,"RA_OF_ASC_NODE":110.084,"ARG_OF_PERICENTER":289.9729,"MEAN_ANOMALY":69.5323,"EPHEMERIS_TYPE":0,"CLASSIFICATION_TYPE":"U","NORAD_CAT_ID":38098,"ELEMENT_SET_NO":999,"REV_AT_EPOCH":667,"BSTAR":0,"MEAN_MOTION_DOT":-7.0e-7,"MEAN_MOTION_DDOT":0},{"OBJECT_NAME":"COSMOS 2479","OBJECT_ID":"2012-012A","EPOCH":"2026-04-26T11:59:41.557056","MEAN_MOTION":1.00362915,"ECCENTRICITY":0.0005857,"INCLINATION":8.734,"RA_OF_ASC_NODE":56.8553,"ARG_OF_PERICENTER":247.1481,"MEAN_ANOMALY":119.6614,"EPHEMERIS_TYPE":0,"CLASSIFICATION_TYPE":"U","NORAD_CAT_ID":38101,"ELEMENT_SET_NO":999,"REV_AT_EPOCH":5157,"BSTAR":0,"MEAN_MOTION_DOT":1.38e-6,"MEAN_MOTION_DDOT":0},{"OBJECT_NAME":"SL-12 R/B(2)","OBJECT_ID":"2012-012D","EPOCH":"2026-04-26T11:25:38.624736","MEAN_MOTION":1.00346947,"ECCENTRICITY":0.001266,"INCLINATION":8.7227,"RA_OF_ASC_NODE":57.0621,"ARG_OF_PERICENTER":302.3103,"MEAN_ANOMALY":231.9139,"EPHEMERIS_TYPE":0,"CLASSIFICATION_TYPE":"U","NORAD_CAT_ID":38104,"ELEMENT_SET_NO":999,"REV_AT_EPOCH":5154,"BSTAR":0,"MEAN_MOTION_DOT":1.19e-6,"MEAN_MOTION_DDOT":0},{"OBJECT_NAME":"APSTAR-7","OBJECT_ID":"2012-013A","EPOCH":"2026-04-26T12:13:10.263648","MEAN_MOTION":1.00271298,"ECCENTRICITY":0.0002957,"INCLINATION":0.0413,"RA_OF_ASC_NODE":62.5297,"ARG_OF_PERICENTER":349.1124,"MEAN_ANOMALY":62.6544,"EPHEMERIS_TYPE":0,"CLASSIFICATION_TYPE":"U","NORAD_CAT_ID":38107,"ELEMENT_SET_NO":999,"REV_AT_EPOCH":5129,"BSTAR":0,"MEAN_MOTION_DOT":-1.14e-6,"MEAN_MOTION_DDOT":0},{"OBJECT_NAME":"YAHSAT 1B","OBJECT_ID":"2012-016A","EPOCH":"2026-04-26T12:04:56.053056","MEAN_MOTION":1.00270155,"ECCENTRICITY":0.0002867,"INCLINATION":0.0857,"RA_OF_ASC_NODE":86.2656,"ARG_OF_PERICENTER":308.6573,"MEAN_ANOMALY":48.4183,"EPHEMERIS_TYPE":0,"CLASSIFICATION_TYPE":"U","NORAD_CAT_ID":38245,"ELEMENT_SET_NO":999,"REV_AT_EPOCH":4508,"BSTAR":0,"MEAN_MOTION_DOT":1.14e-6,"MEAN_MOTION_DDOT":0},{"OBJECT_NAME":"AEHF-2 (USA 235)","OBJECT_ID":"2012-019A","EPOCH":"2026-04-26T05:53:38.586336","MEAN_MOTION":1.00273459,"ECCENTRICITY":0.0002344,"INCLINATION":6.5315,"RA_OF_ASC_NODE":57.8605,"ARG_OF_PERICENTER":320.1923,"MEAN_ANOMALY":268.0902,"EPHEMERIS_TYPE":0,"CLASSIFICATION_TYPE":"U","NORAD_CAT_ID":38254,"ELEMENT_SET_NO":999,"REV_AT_EPOCH":646,"BSTAR":0,"MEAN_MOTION_DOT":-1.44e-6,"MEAN_MOTION_DDOT":0},{"OBJECT_NAME":"JCSAT-13","OBJECT_ID":"2012-023A","EPOCH":"2026-04-26T10:01:38.435808","MEAN_MOTION":1.00273776,"ECCENTRICITY":0.0002318,"INCLINATION":0.0403,"RA_OF_ASC_NODE":78.1768,"ARG_OF_PERICENTER":327.5682,"MEAN_ANOMALY":83.0907,"EPHEMERIS_TYPE":0,"CLASSIFICATION_TYPE":"U","NORAD_CAT_ID":38331,"ELEMENT_SET_NO":999,"REV_AT_EPOCH":5102,"BSTAR":0,"MEAN_MOTION_DOT":-3.68e-6,"MEAN_MOTION_DDOT":0},{"OBJECT_NAME":"VINASAT-2","OBJECT_ID":"2012-023B","EPOCH":"2026-04-26T10:46:17.915808","MEAN_MOTION":1.0026842,"ECCENTRICITY":0.0002789,"INCLINATION":0.0121,"RA_OF_ASC_NODE":59.3645,"ARG_OF_PERICENTER":354.3339,"MEAN_ANOMALY":94.1786,"EPHEMERIS_TYPE":0,"CLASSIFICATION_TYPE":"U","NORAD_CAT_ID":38332,"ELEMENT_SET_NO":999,"REV_AT_EPOCH":4614,"BSTAR":0,"MEAN_MOTION_DOT":0,"MEAN_MOTION_DDOT":0},{"OBJECT_NAME":"NIMIQ 6","OBJECT_ID":"2012-026A","EPOCH":"2026-04-26T11:25:22.346976","MEAN_MOTION":1.00271851,"ECCENTRICITY":0.0002537,"INCLINATION":0.0637,"RA_OF_ASC_NODE":76.5286,"ARG_OF_PERICENTER":313.38,"MEAN_ANOMALY":264.8106,"EPHEMERIS_TYPE":0,"CLASSIFICATION_TYPE":"U","NORAD_CAT_ID":38342,"ELEMENT_SET_NO":999,"REV_AT_EPOCH":4989,"BSTAR":0,"MEAN_MOTION_DOT":-1.86e-6,"MEAN_MOTION_DDOT":0},{"OBJECT_NAME":"ZHONGXING-2A","OBJECT_ID":"2012-028A","EPOCH":"2026-04-24T19:37:21.797760","MEAN_MOTION":1.00268081,"ECCENTRICITY":0.0001525,"INCLINATION":1.3174,"RA_OF_ASC_NODE":84.5163,"ARG_OF_PERICENTER":20.4336,"MEAN_ANOMALY":140.4515,"EPHEMERIS_TYPE":0,"CLASSIFICATION_TYPE":"U","NORAD_CAT_ID":38352,"ELEMENT_SET_NO":999,"REV_AT_EPOCH":5076,"BSTAR":0,"MEAN_MOTION_DOT":-3.05e-6,"MEAN_MOTION_DDOT":0},{"OBJECT_NAME":"INTELSAT 19 (IS-19)","OBJECT_ID":"2012-030A","EPOCH":"2026-04-26T12:00:38.867040","MEAN_MOTION":1.00268338,"ECCENTRICITY":0.0002945,"INCLINATION":0.0434,"RA_OF_ASC_NODE":69.0686,"ARG_OF_PERICENTER":323.0946,"MEAN_ANOMALY":168.4987,"EPHEMERIS_TYPE":0,"CLASSIFICATION_TYPE":"U","NORAD_CAT_ID":38356,"ELEMENT_SET_NO":999,"REV_AT_EPOCH":4993,"BSTAR":0,"MEAN_MOTION_DOT":-6.9e-7,"MEAN_MOTION_DDOT":0},{"OBJECT_NAME":"ECHOSTAR 17","OBJECT_ID":"2012-035A","EPOCH":"2026-04-26T11:20:52.778112","MEAN_MOTION":1.0026805,"ECCENTRICITY":0.0002054,"INCLINATION":0.0152,"RA_OF_ASC_NODE":227.041,"ARG_OF_PERICENTER":176.3761,"MEAN_ANOMALY":234.1777,"EPHEMERIS_TYPE":0,"CLASSIFICATION_TYPE":"U","NORAD_CAT_ID":38551,"ELEMENT_SET_NO":999,"REV_AT_EPOCH":5054,"BSTAR":0,"MEAN_MOTION_DOT":0,"MEAN_MOTION_DDOT":0}]
